{"fetched_at":"2026-07-18T06:28:13.986Z","source":"https://celestrak.org/NORAD/elements/gp.php?NAME=JILIN&FORMAT=JSON","constellation":"jilin-1-gaofen","records":[{"OBJECT_NAME":"JILIN-1 GAOFEN 03D51","OBJECT_ID":"2022-155B","EPOCH":"2026-07-17T22:38:15.941184","CLASSIFICATION_TYPE":"U","MEAN_MOTION":15.65071092,"ECCENTRICITY":0.00045262,"INCLINATION":97.6266,"RA_OF_ASC_NODE":346.1897,"ARG_OF_PERICENTER":221.4034,"MEAN_ANOMALY":138.6883,"EPHEMERIS_TYPE":0,"NORAD_CAT_ID":54252,"ELEMENT_SET_NO":999,"REV_AT_EPOCH":20455,"BSTAR":0.0003810358,"MEAN_MOTION_DOT":0.00037465,"MEAN_MOTION_DDOT":0},{"OBJECT_NAME":"JILIN-1 GAOFEN 03D53","OBJECT_ID":"2022-155C","EPOCH":"2026-07-17T22:33:53.087328","CLASSIFICATION_TYPE":"U","MEAN_MOTION":15.54538884,"ECCENTRICITY":0.00050012,"INCLINATION":97.6257,"RA_OF_ASC_NODE":341.3418,"ARG_OF_PERICENTER":238.8063,"MEAN_ANOMALY":121.27,"EPHEMERIS_TYPE":0,"NORAD_CAT_ID":54253,"ELEMENT_SET_NO":999,"REV_AT_EPOCH":20426,"BSTAR":0.00033812062,"MEAN_MOTION_DOT":0.00022225,"MEAN_MOTION_DDOT":0},{"OBJECT_NAME":"JILIN-1 GAOFEN 03D52","OBJECT_ID":"2022-155E","EPOCH":"2026-07-17T22:28:36.371712","CLASSIFICATION_TYPE":"U","MEAN_MOTION":15.62212694,"ECCENTRICITY":0.00039234,"INCLINATION":97.6242,"RA_OF_ASC_NODE":344.3798,"ARG_OF_PERICENTER":235.6796,"MEAN_ANOMALY":124.409,"EPHEMERIS_TYPE":0,"NORAD_CAT_ID":54255,"ELEMENT_SET_NO":999,"REV_AT_EPOCH":20450,"BSTAR":0.00037230793,"MEAN_MOTION_DOT":0.00032702,"MEAN_MOTION_DDOT":0},{"OBJECT_NAME":"JILIN-1 GAOFEN 03D50","OBJECT_ID":"2022-167J","EPOCH":"2026-07-17T21:37:33.788928","CLASSIFICATION_TYPE":"U","MEAN_MOTION":15.35095179,"ECCENTRICITY":0.00049684,"INCLINATION":97.686,"RA_OF_ASC_NODE":8.0167,"ARG_OF_PERICENTER":12.6126,"MEAN_ANOMALY":347.524,"EPHEMERIS_TYPE":0,"NORAD_CAT_ID":54690,"ELEMENT_SET_NO":999,"REV_AT_EPOCH":20006,"BSTAR":0.00018142292,"MEAN_MOTION_DOT":0.00006094,"MEAN_MOTION_DDOT":0},{"OBJECT_NAME":"JILIN-1 GAOFEN 03D47","OBJECT_ID":"2022-167L","EPOCH":"2026-07-17T21:44:59.645760","CLASSIFICATION_TYPE":"U","MEAN_MOTION":15.34375691,"ECCENTRICITY":0.00075659,"INCLINATION":97.6956,"RA_OF_ASC_NODE":9.7606,"ARG_OF_PERICENTER":20.4949,"MEAN_ANOMALY":339.6596,"EPHEMERIS_TYPE":0,"NORAD_CAT_ID":54692,"ELEMENT_SET_NO":999,"REV_AT_EPOCH":20005,"BSTAR":0.0001771971,"MEAN_MOTION_DOT":0.00005817,"MEAN_MOTION_DDOT":0},{"OBJECT_NAME":"JILIN-1 GAOFEN 03D49","OBJECT_ID":"2022-167N","EPOCH":"2026-07-17T21:58:07.163616","CLASSIFICATION_TYPE":"U","MEAN_MOTION":15.38081044,"ECCENTRICITY":0.00058283,"INCLINATION":97.6834,"RA_OF_ASC_NODE":10.4383,"ARG_OF_PERICENTER":41.0451,"MEAN_ANOMALY":319.1231,"EPHEMERIS_TYPE":0,"NORAD_CAT_ID":54694,"ELEMENT_SET_NO":999,"REV_AT_EPOCH":20021,"BSTAR":0.00018992459,"MEAN_MOTION_DOT":0.00007032,"MEAN_MOTION_DDOT":0},{"OBJECT_NAME":"JILIN-1 GAOFEN 03D48","OBJECT_ID":"2022-167P","EPOCH":"2026-07-17T22:58:47.243136","CLASSIFICATION_TYPE":"U","MEAN_MOTION":15.35828821,"ECCENTRICITY":0.00062085,"INCLINATION":97.6905,"RA_OF_ASC_NODE":9.8012,"ARG_OF_PERICENTER":21.0246,"MEAN_ANOMALY":339.1251,"EPHEMERIS_TYPE":0,"NORAD_CAT_ID":54695,"ELEMENT_SET_NO":999,"REV_AT_EPOCH":20011,"BSTAR":0.00019247144,"MEAN_MOTION_DOT":0.00006626,"MEAN_MOTION_DDOT":0},{"OBJECT_NAME":"JILIN GAOFEN OBJECT A","OBJECT_ID":"2026-080A","EPOCH":"2026-07-17T17:16:13.911744","CLASSIFICATION_TYPE":"U","MEAN_MOTION":15.09211185,"ECCENTRICITY":0.00109955,"INCLINATION":97.6607,"RA_OF_ASC_NODE":274.1951,"ARG_OF_PERICENTER":325.9072,"MEAN_ANOMALY":34.1449,"EPHEMERIS_TYPE":0,"NORAD_CAT_ID":68691,"ELEMENT_SET_NO":999,"REV_AT_EPOCH":1426,"BSTAR":0.00012113513,"MEAN_MOTION_DOT":0.00001863,"MEAN_MOTION_DDOT":0},{"OBJECT_NAME":"JILIN GAOFEN OBJECT B","OBJECT_ID":"2026-080B","EPOCH":"2026-07-17T21:37:31.446624","CLASSIFICATION_TYPE":"U","MEAN_MOTION":15.08913547,"ECCENTRICITY":0.00156792,"INCLINATION":97.6584,"RA_OF_ASC_NODE":274.3882,"ARG_OF_PERICENTER":303.3517,"MEAN_ANOMALY":56.621,"EPHEMERIS_TYPE":0,"NORAD_CAT_ID":68692,"ELEMENT_SET_NO":999,"REV_AT_EPOCH":1429,"BSTAR":0.00017179076,"MEAN_MOTION_DOT":0.00002651,"MEAN_MOTION_DDOT":0},{"OBJECT_NAME":"JILIN GAOFEN OBJECT C","OBJECT_ID":"2026-080C","EPOCH":"2026-07-17T17:15:07.778592","CLASSIFICATION_TYPE":"U","MEAN_MOTION":15.0891057,"ECCENTRICITY":0.00131651,"INCLINATION":97.659,"RA_OF_ASC_NODE":274.1766,"ARG_OF_PERICENTER":305.9926,"MEAN_ANOMALY":54.0081,"EPHEMERIS_TYPE":0,"NORAD_CAT_ID":68693,"ELEMENT_SET_NO":999,"REV_AT_EPOCH":1426,"BSTAR":0.00012645548,"MEAN_MOTION_DOT":0.00001932,"MEAN_MOTION_DDOT":0},{"OBJECT_NAME":"JILIN GAOFEN OBJECT D","OBJECT_ID":"2026-080D","EPOCH":"2026-07-17T23:14:03.295680","CLASSIFICATION_TYPE":"U","MEAN_MOTION":15.08973124,"ECCENTRICITY":0.00163374,"INCLINATION":97.6647,"RA_OF_ASC_NODE":274.5314,"ARG_OF_PERICENTER":315.0548,"MEAN_ANOMALY":44.9357,"EPHEMERIS_TYPE":0,"NORAD_CAT_ID":68694,"ELEMENT_SET_NO":999,"REV_AT_EPOCH":1428,"BSTAR":0.00017825523,"MEAN_MOTION_DOT":0.00002758,"MEAN_MOTION_DDOT":0},{"OBJECT_NAME":"JILIN GAOFEN OBJECT E","OBJECT_ID":"2026-080E","EPOCH":"2026-07-17T22:47:47.228352","CLASSIFICATION_TYPE":"U","MEAN_MOTION":15.08935664,"ECCENTRICITY":0.00136297,"INCLINATION":97.6631,"RA_OF_ASC_NODE":274.5328,"ARG_OF_PERICENTER":325.9494,"MEAN_ANOMALY":34.0859,"EPHEMERIS_TYPE":0,"NORAD_CAT_ID":68695,"ELEMENT_SET_NO":999,"REV_AT_EPOCH":1426,"BSTAR":0.000178801,"MEAN_MOTION_DOT":0.00002762,"MEAN_MOTION_DDOT":0},{"OBJECT_NAME":"JILIN GAOFEN OBJECT F","OBJECT_ID":"2026-080F","EPOCH":"2026-07-17T22:46:25.200192","CLASSIFICATION_TYPE":"U","MEAN_MOTION":15.08919447,"ECCENTRICITY":0.00122955,"INCLINATION":97.6603,"RA_OF_ASC_NODE":274.4991,"ARG_OF_PERICENTER":328.8698,"MEAN_ANOMALY":31.18,"EPHEMERIS_TYPE":0,"NORAD_CAT_ID":68696,"ELEMENT_SET_NO":999,"REV_AT_EPOCH":1426,"BSTAR":0.00017150203,"MEAN_MOTION_DOT":0.00002644,"MEAN_MOTION_DDOT":0},{"OBJECT_NAME":"JILIN GAOFEN OBJECT G","OBJECT_ID":"2026-080G","EPOCH":"2026-07-17T22:26:23.600832","CLASSIFICATION_TYPE":"U","MEAN_MOTION":15.08911804,"ECCENTRICITY":0.00144448,"INCLINATION":97.6649,"RA_OF_ASC_NODE":274.5713,"ARG_OF_PERICENTER":325.4091,"MEAN_ANOMALY":34.6197,"EPHEMERIS_TYPE":0,"NORAD_CAT_ID":68697,"ELEMENT_SET_NO":999,"REV_AT_EPOCH":1426,"BSTAR":0.00015324065,"MEAN_MOTION_DOT":0.00002356,"MEAN_MOTION_DDOT":0},{"OBJECT_NAME":"JILIN GAOFEN OBJECT H","OBJECT_ID":"2026-080H","EPOCH":"2026-07-17T17:36:55.714752","CLASSIFICATION_TYPE":"U","MEAN_MOTION":15.08938632,"ECCENTRICITY":0.00147724,"INCLINATION":97.6635,"RA_OF_ASC_NODE":274.3604,"ARG_OF_PERICENTER":328.0239,"MEAN_ANOMALY":32.0092,"EPHEMERIS_TYPE":0,"NORAD_CAT_ID":68698,"ELEMENT_SET_NO":999,"REV_AT_EPOCH":1423,"BSTAR":0.00013742567,"MEAN_MOTION_DOT":0.00002108,"MEAN_MOTION_DDOT":0}]}
