JILIN-1 GAOFEN 03D51    
1 54252U 22155B   26198.94324006  .00037465  00000+0  38104-3 0  9990
2 54252  97.6266 346.1897 0004526 221.4034 138.6883 15.65071092204556
JILIN-1 GAOFEN 03D53    
1 54253U 22155C   26198.94019777  .00022225  00000+0  33812-3 0  9996
2 54253  97.6257 341.3418 0005001 238.8063 121.2700 15.54538884204265
JILIN-1 GAOFEN 03D52    
1 54255U 22155E   26198.93653208  .00032702  00000+0  37231-3 0  9990
2 54255  97.6242 344.3798 0003923 235.6796 124.4090 15.62212694204505
JILIN-1 GAOFEN 03D50    
1 54690U 22167J   26198.90108552  .00006094  00000+0  18142-3 0  9995
2 54690  97.6860   8.0167 0004968  12.6126 347.5240 15.35095179200067
JILIN-1 GAOFEN 03D47    
1 54692U 22167L   26198.90624590  .00005817  00000+0  17720-3 0  9995
2 54692  97.6956   9.7606 0007565  20.4949 339.6596 15.34375691200051
JILIN-1 GAOFEN 03D49    
1 54694U 22167N   26198.91536069  .00007032  00000+0  18992-3 0  9994
2 54694  97.6834  10.4383 0005828  41.0451 319.1231 15.38081044200213
JILIN-1 GAOFEN 03D48    
1 54695U 22167P   26198.95749124  .00006626  00000+0  19247-3 0  9999
2 54695  97.6905   9.8012 0006208  21.0246 339.1251 15.35828821200119
JILIN GAOFEN OBJECT A   
1 68691U 26080A   26198.71960546  .00001863  00000+0  12114-3 0  9999
2 68691  97.6607 274.1951 0010995 325.9072  34.1449 15.09211185 14269
JILIN GAOFEN OBJECT B   
1 68692U 26080B   26198.90105841  .00002651  00000+0  17179-3 0  9992
2 68692  97.6584 274.3882 0015679 303.3517  56.6210 15.08913547 14295
JILIN GAOFEN OBJECT C   
1 68693U 26080C   26198.71884003  .00001932  00000+0  12646-3 0  9991
2 68693  97.6590 274.1766 0013165 305.9926  54.0081 15.08910570 14260
JILIN GAOFEN OBJECT D   
1 68694U 26080D   26198.96809370  .00002758  00000+0  17826-3 0  9995
2 68694  97.6647 274.5314 0016337 315.0548  44.9357 15.08973124 14283
JILIN GAOFEN OBJECT E   
1 68695U 26080E   26198.94985218  .00002762  00000+0  17880-3 0  9995
2 68695  97.6631 274.5328 0013629 325.9494  34.0859 15.08935664 14265
JILIN GAOFEN OBJECT F   
1 68696U 26080F   26198.94890278  .00002644  00000+0  17150-3 0  9996
2 68696  97.6603 274.4991 0012295 328.8698  31.1800 15.08919447 14261
JILIN GAOFEN OBJECT G   
1 68697U 26080G   26198.93499538  .00002356  00000+0  15324-3 0  9991
2 68697  97.6649 274.5713 0014444 325.4091  34.6197 15.08911804 14269
JILIN GAOFEN OBJECT H   
1 68698U 26080H   26198.73397818  .00002108  00000+0  13743-3 0  9996
2 68698  97.6635 274.3604 0014772 328.0239  32.0092 15.08938632 14230
